[
  {
    "OBJECT_NAME": "STARLINK-11714 [DTC]",
    "OBJECT_ID": "25111M",
    "EPOCH": "2025-11-11T02:32:07.457568",
    "MEAN_MOTION": 15.70859782,
    "ECCENTRICITY": 0.0002747,
    "INCLINATION": 42.9985,
    "RA_OF_ASC_NODE": 328.2086,
    "ARG_OF_PERICENTER": 289.3535,
    "MEAN_ANOMALY": 70.7036,
    "EPHEMERIS_TYPE": 0,
    "CLASSIFICATION_TYPE": "U",
    "NORAD_CAT_ID": 64134,
    "ELEMENT_SET_NO": 999,
    "REV_AT_EPOCH": 2799,
    "BSTAR": 0.0019232,
    "MEAN_MOTION_DOT": 0.0025425,
    "MEAN_MOTION_DDOT": 0.0,
    "TLE_LINE1": "1 64134U 25111M   25315.10564187  .00254250  00000+0  19232-2 0  9992",
    "TLE_LINE2": "2 64134  42.9985 328.2086 0002747 289.3535  70.7036 15.70859782 27993",
    "COMMENT": "Grouped by shell and plane from TLE"
  },
  {
    "OBJECT_NAME": "STARLINK-11712 [DTC]",
    "OBJECT_ID": "25111N",
    "EPOCH": "2025-11-11T03:56:13.325568",
    "MEAN_MOTION": 15.70844526,
    "ECCENTRICITY": 0.0001147,
    "INCLINATION": 43.0,
    "RA_OF_ASC_NODE": 328.6808,
    "ARG_OF_PERICENTER": 250.4244,
    "MEAN_ANOMALY": 109.65,
    "EPHEMERIS_TYPE": 0,
    "CLASSIFICATION_TYPE": "U",
    "NORAD_CAT_ID": 64135,
    "ELEMENT_SET_NO": 999,
    "REV_AT_EPOCH": 2799,
    "BSTAR": 0.0019841,
    "MEAN_MOTION_DOT": 0.00262396,
    "MEAN_MOTION_DDOT": 0.0,
    "TLE_LINE1": "1 64135U 25111N   25315.16404312  .00262396  00000+0  19841-2 0  9998",
    "TLE_LINE2": "2 64135  43.0000 328.6808 0001147 250.4244 109.6500 15.70844526 27997",
    "COMMENT": "Grouped by shell and plane from TLE"
  }
]